NORAD_CAT_ID,OBJECT_NAME,OBJECT_TYPE,EPOCH,MEAN_MOTION,ECCENTRICITY,INCLINATION,RA_OF_ASC_NODE,ARG_OF_PERICENTER,MEAN_ANOMALY,BSTAR,MEAN_MOTION_DOT,MEAN_MOTION_DDOT,TLE_LINE0,TLE_LINE1,TLE_LINE2,SEMIMAJOR_AXIS,PERIOD,APOGEE,PERIGEE,DECAYED
52098.0,STARLINK-3665,PAYLOAD,2024-01-30 00:37:44,15.0884544,0.0002129,53.2189,304.2758,94.057,266.0665,0.00045702,6.994e-05,0.0,0 STARLINK-3665,1 52098U 22029L   24030.02621422  .00006994  00000-0  45702-3 0  9996,2 52098  53.2189 304.2758 0002129  94.0570 266.0665 15.08845440104467,6917.864,95.437,541.202,538.256,0.0
52098.0,STARLINK-3665,PAYLOAD,2024-01-30 22:53:09,15.08851741,0.0002336,53.2191,300.1171,105.6896,254.4354,-4.1508e-05,-9.49e-06,0.0,0 STARLINK-3665,1 52098U 22029L   24030.95357833 -.00000949  00000-0 -41508-4 0  9997,2 52098  53.2191 300.1171 0002336 105.6896 254.4354 15.08851741104607,6917.845,95.437,541.326,538.093,0.0
52098.0,STARLINK-3665,PAYLOAD,2024-01-31 00:28:32,15.08850587,0.0002437,53.2194,299.8278,113.8986,246.2262,-7.7669e-05,-1.525e-05,0.0,0 STARLINK-3665,1 52098U 22029L   24031.01981941 -.00001525  00000-0 -77669-4 0  9996,2 52098  53.2194 299.8278 0002437 113.8986 246.2262 15.08850587104610,6917.848,95.437,541.399,538.027,0.0
52098.0,STARLINK-3665,PAYLOAD,2024-01-31 17:57:46,15.08869029,0.000207,53.2186,296.5461,99.4481,260.6746,-0.00046173,-7.635e-05,0.0,0 STARLINK-3665,1 52098U 22029L   24031.74845869 -.00007635  00000-0 -46173-3 0  9997,2 52098  53.2186 296.5461 0002070  99.4481 260.6746 15.08869029104721,6917.792,95.436,541.089,538.225,0.0
52098.0,STARLINK-3665,PAYLOAD,2024-02-01 00:19:19,15.08854589,0.0002331,53.2188,295.36,93.6583,266.4675,-0.00024922,-4.254e-05,0.0,0 STARLINK-3665,1 52098U 22029L   24032.01341892 -.00004254  00000-0 -24922-3 0  9997,2 52098  53.2188 295.3600 0002331  93.6583 266.4675 15.08854589104768,6917.836,95.437,541.313,538.088,0.0
52098.0,STARLINK-3665,PAYLOAD,2024-02-01 16:13:11,15.08835204,0.0002259,53.2187,292.3815,85.6459,274.4791,8.7092e-05,1.098e-05,0.0,0 STARLINK-3665,1 52098U 22029L   24032.67582269  .00001098  00000-0  87092-4 0  9993,2 52098  53.2187 292.3815 0002259  85.6459 274.4791 15.08835204104866,6917.895,95.438,541.323,538.197,0.0
52098.0,STARLINK-3665,PAYLOAD,2024-02-02 00:10:06,15.08838221,0.000224,53.2185,290.8967,82.9725,277.1522,9.7474e-05,1.263e-05,0.0,0 STARLINK-3665,1 52098U 22029L   24033.00702139  .00001263  00000-0  97474-4 0  9990,2 52098  53.2185 290.8967 0002240  82.9725 277.1522 15.08838221104911,6917.886,95.438,541.3,538.201,0.0
52098.0,STARLINK-3665,PAYLOAD,2024-02-02 22:25:31,15.0883547,0.000197,53.2172,286.731,86.1503,273.9715,3.5023e-05,2.69e-06,0.0,0 STARLINK-3665,1 52098U 22029L   24033.93438672  .00000269  00000-0  35023-4 0  9997,2 52098  53.2172 286.7310 0001970  86.1503 273.9715 15.08835470105059,6917.894,95.438,541.122,538.396,0.0
52098.0,STARLINK-3665,PAYLOAD,2024-02-03 03:11:40,15.08837531,0.0002018,53.2173,285.8402,87.3758,272.7465,5.832e-05,6.4e-06,0.0,0 STARLINK-3665,1 52098U 22029L   24034.13310537  .00000640  00000-0  58320-4 0  9997,2 52098  53.2173 285.8402 0002018  87.3758 272.7465 15.08837531105083,6917.888,95.438,541.149,538.357,0.0
52098.0,STARLINK-3665,PAYLOAD,2024-02-03 22:16:17,15.08854471,0.0002016,53.2174,282.2708,89.7466,270.3757,-0.00019896,-3.455e-05,0.0,0 STARLINK-3665,1 52098U 22029L   24034.92798348 -.00003455  00000-0 -19896-3 0  9997,2 52098  53.2174 282.2708 0002016  89.7466 270.3757 15.08854471105208,6917.836,95.437,541.096,538.307,0.0
52098.0,STARLINK-3665,PAYLOAD,2024-02-04 01:27:04,15.08843627,0.0001997,53.2176,281.676,86.0747,274.0473,2.9092e-05,1.75e-06,0.0,0 STARLINK-3665,1 52098U 22029L   24035.06046449  .00000175  00000-0  29092-4 0  9995,2 52098  53.2176 281.6760 0001997  86.0747 274.0473 15.08843627105229,6917.869,95.437,541.116,538.353,0.0
52098.0,STARLINK-3665,PAYLOAD,2024-02-04 20:31:41,15.08845369,0.000192,53.2176,278.1072,91.5006,268.6206,3.0104e-05,1.91e-06,0.0,0 STARLINK-3665,1 52098U 22029L   24035.85534397  .00000191  00000-0  30104-4 0  9990,2 52098  53.2176 278.1072 0001920  91.5006 268.6206 15.08845369105342,6917.864,95.437,541.057,538.401,0.0
52098.0,STARLINK-3665,PAYLOAD,2024-02-04 22:07:04,15.0884573,0.0001917,53.2176,277.8099,92.4557,267.6655,3.3186e-05,2.4e-06,0.0,0 STARLINK-3665,1 52098U 22029L   24035.92158348  .00000240  00000-0  33186-4 0  9994,2 52098  53.2176 277.8099 0001917  92.4557 267.6655 15.08845730105354,6917.863,95.437,541.054,538.402,0.0
52098.0,STARLINK-3665,PAYLOAD,2024-02-05 09:14:46,15.08841484,0.0001884,53.2173,275.7282,92.5202,267.6005,8.5292e-05,1.07e-05,0.0,0 STARLINK-3665,1 52098U 22029L   24036.38526433  .00001070  00000-0  85292-4 0  9996,2 52098  53.2173 275.7282 0001884  92.5202 267.6005 15.08841484105422,6917.876,95.437,541.044,538.438,0.0
52098.0,STARLINK-3665,PAYLOAD,2024-02-05 21:57:51,15.08838188,0.0001766,53.2175,273.3486,98.2307,261.8886,0.00016467,2.333e-05,0.0,0 STARLINK-3665,1 52098U 22029L   24036.91518269  .00002333  00000-0  16467-3 0  9993,2 52098  53.2175 273.3486 0001766  98.2307 261.8886 15.08838188105501,6917.886,95.438,540.973,538.529,0.0
52098.0,STARLINK-3665,PAYLOAD,2024-02-06 21:48:38,15.08846506,0.0001751,53.2172,268.8884,94.9667,265.1525,3.3627e-05,2.47e-06,0.0,0 STARLINK-3665,1 52098U 22029L   24037.90877978  .00000247  00000-0  33627-4 0  9998,2 52098  53.2172 268.8884 0001751  94.9667 265.1525 15.08846506105651,6917.861,95.437,540.937,538.514,0.0
52098.0,STARLINK-3665,PAYLOAD,2024-02-07 00:59:25,15.08819498,0.0001884,53.2174,268.292,105.7638,254.3562,0.00046126,7.056e-05,0.0,0 STARLINK-3665,1 52098U 22029L   24038.04126343  .00007056  00000-0  46126-3 0  9999,2 52098  53.2174 268.2920 0001884 105.7638 254.3562 15.08819498105677,6917.943,95.439,541.111,538.505,0.0
52098.0,STARLINK-3665,PAYLOAD,2024-02-07 21:39:26,15.08829579,0.000158,53.2166,264.4225,89.3822,270.7351,8.688e-05,1.095e-05,0.0,0 STARLINK-3665,1 52098U 22029L   24038.90238771  .00001095  00000-0  86880-4 0  9992,2 52098  53.2166 264.4225 0001580  89.3822 270.7351 15.08829579105803,6917.912,95.438,540.87,538.684,0.0
52098.0,STARLINK-3665,PAYLOAD,2024-02-08 00:50:12,15.08816116,0.000171,53.2168,263.8298,92.4414,267.6774,0.00023806,3.5e-05,0.0,0 STARLINK-3665,1 52098U 22029L   24039.03487242  .00003500  00000-0  23806-3 0  9997,2 52098  53.2168 263.8298 0001710  92.4414 267.6774 15.08816116105824,6917.953,95.439,541.001,538.635,0.0
52098.0,STARLINK-3665,PAYLOAD,2024-02-08 19:54:49,15.088416,0.0001679,53.217,260.2623,106.7425,253.3752,8.8622e-06,-1.47e-06,0.0,0 STARLINK-3665,1 52098U 22029L   24039.82974498 -.00000147  00000-0  88622-5 0  9992,2 52098  53.2170 260.2623 0001679 106.7425 253.3752 15.08841600105942,6917.875,95.437,540.902,538.579,0.0
52098.0,STARLINK-3665,PAYLOAD,2024-02-08 21:30:13,15.08843827,0.0001524,53.2161,259.9653,85.1765,274.9401,1.0967e-05,-1.13e-06,0.0,0 STARLINK-3665,1 52098U 22029L   24039.89598425 -.00000113  00000-0  10967-4 0  9990,2 52098  53.2161 259.9653 0001524  85.1765 274.9401 15.08843827105950,6917.869,95.437,540.788,538.679,0.0
52098.0,STARLINK-3665,PAYLOAD,2024-02-09 00:40:59,15.0884301,0.0001593,53.2167,259.3715,99.1677,260.9495,2.8462e-05,1.65e-06,0.0,0 STARLINK-3665,1 52098U 22029L   24040.02846385  .00000165  00000-0  28462-4 0  9993,2 52098  53.2167 259.3715 0001593  99.1677 260.9495 15.08843010105976,6917.871,95.437,540.838,538.634,0.0
52098.0,STARLINK-3665,PAYLOAD,2024-02-09 19:45:37,15.08833718,0.0001612,53.2171,255.8019,100.2479,259.8695,2.3715e-05,8.9e-07,0.0,0 STARLINK-3665,1 52098U 22029L   24040.82335296  .00000089  00000-0  23715-4 0  9996,2 52098  53.2171 255.8019 0001612 100.2479 259.8695 15.08833718106092,6917.9,95.438,540.88,538.649,0.0
52098.0,STARLINK-3665,PAYLOAD,2024-02-10 00:31:47,15.08832325,0.0001638,53.2169,254.9105,100.629,259.4887,3.1562e-05,2.14e-06,0.0,0 STARLINK-3665,1 52098U 22029L   24041.02207439  .00000214  00000-0  31562-4 0  9995,2 52098  53.2169 254.9105 0001638 100.6290 259.4887 15.08832325106124,6917.904,95.438,540.902,538.636,0.0
52098.0,STARLINK-3665,PAYLOAD,2024-02-10 19:36:24,15.08847831,0.0001567,53.2161,251.3415,115.4185,244.697,1.6275e-05,-2.9e-07,0.0,0 STARLINK-3665,1 52098U 22029L   24041.81694674 -.00000029  00000-0  16275-4 0  9992,2 52098  53.2161 251.3415 0001567 115.4185 244.6970 15.08847831106249,6917.856,95.437,540.805,538.637,0.0
52098.0,STARLINK-3665,PAYLOAD,2024-02-10 21:11:47,15.08848546,0.00013,53.216,251.0437,85.9132,274.2008,4.3419e-05,4.03e-06,0.0,0 STARLINK-3665,1 52098U 22029L   24041.88318659  .00000403  00000-0  43419-4 0  9990,2 52098  53.2160 251.0437 0001300  85.9132 274.2008 15.08848546106253,6917.854,95.437,540.619,538.82,0.0
52098.0,STARLINK-3665,PAYLOAD,2024-02-11 13:05:39,15.08838501,0.0001347,53.2161,248.0729,91.9275,268.1871,0.00012207,1.655e-05,0.0,0 STARLINK-3665,1 52098U 22029L   24042.54559053  .00001655  00000-0  12207-3 0  9999,2 52098  53.2161 248.0729 0001347  91.9275 268.1871 15.08838501106351,6917.885,95.438,540.682,538.818,0.0
52098.0,STARLINK-3665,PAYLOAD,2024-02-11 19:27:11,15.08844861,0.0001308,53.2159,246.8843,86.9064,273.2078,9.5269e-05,1.229e-05,0.0,0 STARLINK-3665,1 52098U 22029L   24042.81054741  .00001229  00000-0  95269-4 0  9990,2 52098  53.2159 246.8843 0001308  86.9064 273.2078 15.08844861106394,6917.866,95.437,540.635,538.826,0.0
52098.0,STARLINK-3665,PAYLOAD,2024-02-11 21:02:34,15.08845708,0.0001332,53.2162,246.5872,84.6629,275.4515,9.8924e-05,1.287e-05,0.0,0 STARLINK-3665,1 52098U 22029L   24042.87678644  .00001287  00000-0  98924-4 0  9995,2 52098  53.2162 246.5872 0001332  84.6629 275.4515 15.08845708106409,6917.863,95.437,540.649,538.806,0.0
52098.0,STARLINK-3665,PAYLOAD,2024-02-12 12:56:26,15.08841274,0.0001588,53.2168,243.616,70.8967,289.2198,7.863e-05,9.64e-06,0.0,0 STARLINK-3665,1 52098U 22029L   24043.53919134  .00000964  00000-0  78630-4 0  9994,2 52098  53.2168 243.6160 0001588  70.8967 289.2198 15.08841274106503,6917.876,95.437,540.84,538.643,0.0
